METEOR-M2 4             
1 59051U 24039A   24327.14159723  .00000148  00000+0  85987-4 0  9991
2 59051  98.6215 285.3160 0007737  34.0619 326.1054 14.22303960 37949
